[{"OBJECT_NAME":"COSMOS 2251 DEB","OBJECT_ID":"1993-036WX","EPOCH":"2026-03-05T16:14:29.375232","MEAN_MOTION":14.73358685,"ECCENTRICITY":0.00288326,"INCLINATION":74.0487,"RA_OF_ASC_NODE":162.4938,"ARG_OF_PERICENTER":237.0258,"MEAN_ANOMALY":243.5995,"EPHEMERIS_TYPE":0,"CLASSIFICATION_TYPE":"U","NORAD_CAT_ID":34626,"ELEMENT_SET_NO":999,"REV_AT_EPOCH":90365,"BSTAR":0.0011786187,"MEAN_MOTION_DOT":7.66e-5,"MEAN_MOTION_DDOT":0},{"OBJECT_NAME":"COSMOS 2251 DEB","OBJECT_ID":"1993-036XF","EPOCH":"2026-03-05T22:19:34.419936","MEAN_MOTION":14.55968849,"ECCENTRICITY":0.00457728,"INCLINATION":74.049,"RA_OF_ASC_NODE":237.4309,"ARG_OF_PERICENTER":321.4439,"MEAN_ANOMALY":192.0438,"EPHEMERIS_TYPE":0,"CLASSIFICATION_TYPE":"U","NORAD_CAT_ID":34634,"ELEMENT_SET_NO":999,"REV_AT_EPOCH":89992,"BSTAR":0.00038583932,"MEAN_MOTION_DOT":1.691e-5,"MEAN_MOTION_DDOT":0},{"OBJECT_NAME":"COSMOS 2251 DEB","OBJECT_ID":"1993-036XG","EPOCH":"2026-03-06T00:45:20.043072","MEAN_MOTION":14.69593448,"ECCENTRICITY":0.00293762,"INCLINATION":74.0426,"RA_OF_ASC_NODE":269.5823,"ARG_OF_PERICENTER":315.3472,"MEAN_ANOMALY":199.4506,"EPHEMERIS_TYPE":0,"CLASSIFICATION_TYPE":"U","NORAD_CAT_ID":34635,"ELEMENT_SET_NO":999,"REV_AT_EPOCH":74442,"BSTAR":0.0010249517,"MEAN_MOTION_DOT":6.104e-5,"MEAN_MOTION_DDOT":0},{"OBJECT_NAME":"COSMOS 2251 DEB","OBJECT_ID":"1993-036XJ","EPOCH":"2026-03-05T23:44:40.897536","MEAN_MOTION":14.60922707,"ECCENTRICITY":0.00494676,"INCLINATION":74.049,"RA_OF_ASC_NODE":302.2923,"ARG_OF_PERICENTER":349.2716,"MEAN_ANOMALY":130.2477,"EPHEMERIS_TYPE":0,"CLASSIFICATION_TYPE":"U","NORAD_CAT_ID":34637,"ELEMENT_SET_NO":999,"REV_AT_EPOCH":89742,"BSTAR":0.00069380552,"MEAN_MOTION_DOT":3.427e-5,"MEAN_MOTION_DDOT":0},{"OBJECT_NAME":"COSMOS 2251 DEB","OBJECT_ID":"1993-036XN","EPOCH":"2026-03-06T01:14:07.013184","MEAN_MOTION":14.5264935,"ECCENTRICITY":0.00176798,"INCLINATION":73.8366,"RA_OF_ASC_NODE":282.7141,"ARG_OF_PERICENTER":186.4516,"MEAN_ANOMALY":325.1097,"EPHEMERIS_TYPE":0,"CLASSIFICATION_TYPE":"U","NORAD_CAT_ID":34641,"ELEMENT_SET_NO":999,"REV_AT_EPOCH":89465,"BSTAR":0.00056066122,"MEAN_MOTION_DOT":2.272e-5,"MEAN_MOTION_DDOT":0},{"OBJECT_NAME":"COSMOS 2251 DEB","OBJECT_ID":"1993-036XP","EPOCH":"2026-03-05T18:03:30.232800","MEAN_MOTION":13.99300079,"ECCENTRICITY":0.02086191,"INCLINATION":74.0032,"RA_OF_ASC_NODE":195.9712,"ARG_OF_PERICENTER":356.1579,"MEAN_ANOMALY":70.8109,"EPHEMERIS_TYPE":0,"CLASSIFICATION_TYPE":"U","NORAD_CAT_ID":34642,"ELEMENT_SET_NO":999,"REV_AT_EPOCH":86454,"BSTAR":0.00099853427,"MEAN_MOTION_DOT":1.725e-5,"MEAN_MOTION_DDOT":0},{"OBJECT_NAME":"COSMOS 2251 DEB","OBJECT_ID":"1993-036XR","EPOCH":"2026-03-06T04:16:51.620736","MEAN_MOTION":14.68631634,"ECCENTRICITY":0.00091963,"INCLINATION":74.0284,"RA_OF_ASC_NODE":333.0011,"ARG_OF_PERICENTER":28.8452,"MEAN_ANOMALY":121.4182,"EPHEMERIS_TYPE":0,"CLASSIFICATION_TYPE":"U","NORAD_CAT_ID":34671,"ELEMENT_SET_NO":999,"REV_AT_EPOCH":89521,"BSTAR":0.0016129667,"MEAN_MOTION_DOT":9.366e-5,"MEAN_MOTION_DDOT":0},{"OBJECT_NAME":"COSMOS 2251 DEB","OBJECT_ID":"1993-036XS","EPOCH":"2026-03-01T23:11:07.253088","MEAN_MOTION":14.36544729,"ECCENTRICITY":0.00252481,"INCLINATION":74.0329,"RA_OF_ASC_NODE":160.0132,"ARG_OF_PERICENTER":218.9989,"MEAN_ANOMALY":262.2403,"EPHEMERIS_TYPE":0,"CLASSIFICATION_TYPE":"U","NORAD_CAT_ID":34672,"ELEMENT_SET_NO":999,"REV_AT_EPOCH":66315,"BSTAR":0.00025515002,"MEAN_MOTION_DOT":7.26e-6,"MEAN_MOTION_DDOT":0},{"OBJECT_NAME":"COSMOS 2251 DEB","OBJECT_ID":"1993-036XY","EPOCH":"2026-03-06T04:34:04.924128","MEAN_MOTION":14.30080641,"ECCENTRICITY":0.00263795,"INCLINATION":74.0364,"RA_OF_ASC_NODE":213.9733,"ARG_OF_PERICENTER":245.6292,"MEAN_ANOMALY":172.6137,"EPHEMERIS_TYPE":0,"CLASSIFICATION_TYPE":"U","NORAD_CAT_ID":34678,"ELEMENT_SET_NO":999,"REV_AT_EPOCH":88572,"BSTAR":3.4589376e-5,"MEAN_MOTION_DOT":6.4e-7,"MEAN_MOTION_DDOT":0},{"OBJECT_NAME":"COSMOS 2251 DEB","OBJECT_ID":"1993-036YA","EPOCH":"2026-03-06T03:54:32.767200","MEAN_MOTION":14.61620295,"ECCENTRICITY":0.0004949,"INCLINATION":74.045,"RA_OF_ASC_NODE":330.451,"ARG_OF_PERICENTER":38.9041,"MEAN_ANOMALY":118.3588,"EPHEMERIS_TYPE":0,"CLASSIFICATION_TYPE":"U","NORAD_CAT_ID":34680,"ELEMENT_SET_NO":999,"REV_AT_EPOCH":89546,"BSTAR":0.00097748882,"MEAN_MOTION_DOT":4.835e-5,"MEAN_MOTION_DDOT":0},{"OBJECT_NAME":"COSMOS 2251 DEB","OBJECT_ID":"1993-036YB","EPOCH":"2026-03-06T05:06:00.970272","MEAN_MOTION":14.85508838,"ECCENTRICITY":0.00220826,"INCLINATION":74.0609,"RA_OF_ASC_NODE":125.1142,"ARG_OF_PERICENTER":173.4369,"MEAN_ANOMALY":243.2321,"EPHEMERIS_TYPE":0,"CLASSIFICATION_TYPE":"U","NORAD_CAT_ID":34681,"ELEMENT_SET_NO":999,"REV_AT_EPOCH":90509,"BSTAR":0.001216071,"MEAN_MOTION_DOT":0.00010529,"MEAN_MOTION_DDOT":0},{"OBJECT_NAME":"COSMOS 2251 DEB","OBJECT_ID":"1993-036YC","EPOCH":"2026-03-06T08:06:15.080256","MEAN_MOTION":14.59562783,"ECCENTRICITY":0.00173174,"INCLINATION":74.0372,"RA_OF_ASC_NODE":283.6895,"ARG_OF_PERICENTER":30.4316,"MEAN_ANOMALY":99.2929,"EPHEMERIS_TYPE":0,"CLASSIFICATION_TYPE":"U","NORAD_CAT_ID":34682,"ELEMENT_SET_NO":999,"REV_AT_EPOCH":89905,"BSTAR":0.00073619502,"MEAN_MOTION_DOT":3.479e-5,"MEAN_MOTION_DDOT":0},{"OBJECT_NAME":"COSMOS 2251 DEB","OBJECT_ID":"1993-036YD","EPOCH":"2026-03-06T01:01:49.005984","MEAN_MOTION":14.65633957,"ECCENTRICITY":0.00170142,"INCLINATION":74.0276,"RA_OF_ASC_NODE":291.9447,"ARG_OF_PERICENTER":21.7804,"MEAN_ANOMALY":103.1051,"EPHEMERIS_TYPE":0,"CLASSIFICATION_TYPE":"U","NORAD_CAT_ID":34683,"ELEMENT_SET_NO":999,"REV_AT_EPOCH":89568,"BSTAR":0.00098437957,"MEAN_MOTION_DOT":5.335e-5,"MEAN_MOTION_DDOT":0},{"OBJECT_NAME":"COSMOS 2251 DEB","OBJECT_ID":"1993-036YF","EPOCH":"2026-03-05T18:51:49.687200","MEAN_MOTION":14.58368944,"ECCENTRICITY":0.00118469,"INCLINATION":74.0326,"RA_OF_ASC_NODE":350.7723,"ARG_OF_PERICENTER":75.8964,"MEAN_ANOMALY":315.1312,"EPHEMERIS_TYPE":0,"CLASSIFICATION_TYPE":"U","NORAD_CAT_ID":34685,"ELEMENT_SET_NO":999,"REV_AT_EPOCH":89742,"BSTAR":0.0013124414,"MEAN_MOTION_DOT":6.061e-5,"MEAN_MOTION_DDOT":0},{"OBJECT_NAME":"COSMOS 2251 DEB","OBJECT_ID":"1993-036YK","EPOCH":"2026-03-06T04:09:04.366944","MEAN_MOTION":14.05926077,"ECCENTRICITY":0.02192943,"INCLINATION":74.087,"RA_OF_ASC_NODE":78.0958,"ARG_OF_PERICENTER":128.6845,"MEAN_ANOMALY":351.3164,"EPHEMERIS_TYPE":0,"CLASSIFICATION_TYPE":"U","NORAD_CAT_ID":34689,"ELEMENT_SET_NO":999,"REV_AT_EPOCH":85513,"BSTAR":0.0024470569,"MEAN_MOTION_DOT":4.958e-5,"MEAN_MOTION_DDOT":0},{"OBJECT_NAME":"COSMOS 2251 DEB","OBJECT_ID":"1993-036YP","EPOCH":"2026-03-02T19:04:54.269184","MEAN_MOTION":13.97225721,"ECCENTRICITY":0.02175792,"INCLINATION":73.9228,"RA_OF_ASC_NODE":187.3224,"ARG_OF_PERICENTER":110.1735,"MEAN_ANOMALY":40.9253,"EPHEMERIS_TYPE":0,"CLASSIFICATION_TYPE":"U","NORAD_CAT_ID":34721,"ELEMENT_SET_NO":999,"REV_AT_EPOCH":86267,"BSTAR":0.0014303545,"MEAN_MOTION_DOT":2.425e-5,"MEAN_MOTION_DDOT":0}]
