COSMOS 2251 DEB         
1 34626U 93036WX  26064.67672888  .00007660  00000+0  11786-2 0  9995
2 34626  74.0487 162.4938 0028832 237.0258 243.5995 14.73358685903656
COSMOS 2251 DEB         
1 34634U 93036XF  26064.93025949  .00001691  00000+0  38584-3 0  9997
2 34634  74.0490 237.4309 0045772 321.4439 192.0438 14.55968849899928
COSMOS 2251 DEB         
1 34635U 93036XG  26065.03148198  .00006104  00000+0  10250-2 0  9995
2 34635  74.0426 269.5823 0029376 315.3472 199.4506 14.69593448744421
COSMOS 2251 DEB         
1 34637U 93036XJ  26064.98936224  .00003427  00000+0  69381-3 0  9990
2 34637  74.0490 302.2923 0049467 349.2716 130.2477 14.60922707897424
COSMOS 2251 DEB         
1 34641U 93036XN  26065.05147006  .00002272  00000+0  56066-3 0  9999
2 34641  73.8366 282.7141 0017679 186.4516 325.1097 14.52649350894657
COSMOS 2251 DEB         
1 34642U 93036XP  26064.75243325  .00001725  00000+0  99853-3 0  9990
2 34642  74.0032 195.9712 0208619 356.1579  70.8109 13.99300079864546
COSMOS 2251 DEB         
1 34671U 93036XR  26065.17837524  .00009366  00000+0  16130-2 0  9994
2 34671  74.0284 333.0011 0009196  28.8452 121.4182 14.68631634895219
COSMOS 2251 DEB         
1 34672U 93036XS  26060.96605617  .00000726  00000+0  25515-3 0  9992
2 34672  74.0329 160.0132 0025248 218.9989 262.2403 14.36544729663154
COSMOS 2251 DEB         
1 34678U 93036XY  26065.19033477  .00000064  00000+0  34589-4 0  9994
2 34678  74.0364 213.9733 0026379 245.6292 172.6137 14.30080641885723
COSMOS 2251 DEB         
1 34680U 93036YA  26065.16287925  .00004835  00000+0  97749-3 0  9999
2 34680  74.0450 330.4510 0004949  38.9041 118.3588 14.61620295895462
COSMOS 2251 DEB         
1 34681U 93036YB  26065.21251123  .00010529  00000+0  12161-2 0  9998
2 34681  74.0609 125.1142 0022082 173.4369 243.2321 14.85508838905093
COSMOS 2251 DEB         
1 34682U 93036YC  26065.33767454  .00003479  00000+0  73620-3 0  9995
2 34682  74.0372 283.6895 0017317  30.4316  99.2929 14.59562783899056
COSMOS 2251 DEB         
1 34683U 93036YD  26065.04292831  .00005335  00000+0  98438-3 0  9993
2 34683  74.0276 291.9447 0017014  21.7804 103.1051 14.65633957895689
COSMOS 2251 DEB         
1 34685U 93036YF  26064.78599175  .00006061  00000+0  13124-2 0  9991
2 34685  74.0326 350.7723 0011846  75.8964 315.1312 14.58368944897424
COSMOS 2251 DEB         
1 34689U 93036YK  26065.17296721  .00004958  00000+0  24471-2 0  9990
2 34689  74.0870  78.0958 0219294 128.6845 351.3164 14.05926077855132
COSMOS 2251 DEB         
1 34721U 93036YP  26061.79507256  .00002425  00000+0  14304-2 0  9990
2 34721  73.9228 187.3224 0217579 110.1735  40.9253 13.97225721862677
